[{"OBJECT_NAME":"NEXTSAT-2","OBJECT_ID":"2023-072A","EPOCH":"2026-03-09T23:10:55.073280","MEAN_MOTION":15.26393087,"ECCENTRICITY":0.00062633,"INCLINATION":97.5306,"RA_OF_ASC_NODE":265.1019,"ARG_OF_PERICENTER":22.4193,"MEAN_ANOMALY":337.7318,"EPHEMERIS_TYPE":0,"CLASSIFICATION_TYPE":"U","NORAD_CAT_ID":56743,"ELEMENT_SET_NO":999,"REV_AT_EPOCH":15445,"BSTAR":0.00056400163,"MEAN_MOTION_DOT":0.00014622,"MEAN_MOTION_DDOT":0},{"OBJECT_NAME":"STARLINK-36538","OBJECT_ID":"2026-012V","EPOCH":"2026-03-09T23:32:14.919072","MEAN_MOTION":15.27590595,"ECCENTRICITY":0.00018041,"INCLINATION":43.0049,"RA_OF_ASC_NODE":312.9874,"ARG_OF_PERICENTER":285.501,"MEAN_ANOMALY":74.5643,"EPHEMERIS_TYPE":0,"CLASSIFICATION_TYPE":"U","NORAD_CAT_ID":67512,"ELEMENT_SET_NO":999,"REV_AT_EPOCH":780,"BSTAR":0.001154163,"MEAN_MOTION_DOT":0.00031645,"MEAN_MOTION_DDOT":0}]
